start=new Date('2023-01-20T00:00:00.000Z').valueOf();
sats=[{"CLASSIFICATION_TYPE":"U","COUNTRY_CODE":"US","RCS_SIZE":"LARGE","EPHEMERIS_TYPE":"0","OBJECT_NAME":"STARLINK-2428","BSTAR":"-0.00010511000000","MEAN_MOTION_DDOT":"0.0000000000000","RA_OF_ASC_NODE":"272.9779","DECAY_DATE":null,"SEMIMAJOR_AXIS":"6925.341","ELEMENT_SET_NO":"999","EPOCH":"2023-01-19T09:54:53.768448","MEAN_ANOMALY":"250.1540","FILE":"3754973","TLE_LINE2":"2 48099  53.0519 272.9779 0000970 109.9554 250.1540 15.06402463 99799","OBJECT_ID":"2021-027H","MEAN_ELEMENT_THEORY":"SGP4","CENTER_NAME":"EARTH","SITE":"AFETR","LAUNCH_DATE":"2021-04-07","PERIAPSIS":"546.534","ARG_OF_PERICENTER":"109.9554","TIME_SYSTEM":"UTC","APOAPSIS":"547.878","REV_AT_EPOCH":"9979","MEAN_MOTION_DOT":"-0.00001847","OBJECT_TYPE":"PAYLOAD","PERIOD":"95.592","TLE_LINE1":"1 48099U 21027H   23019.41312232 -.00001847  00000-0 -10511-3 0  9998","NORAD_CAT_ID":"48099","GP_ID":"223497310","MEAN_MOTION":"15.06402463","INCLINATION":"53.0519","ECCENTRICITY":"0.00009700","REF_FRAME":"TEME"},{"MEAN_ELEMENT_THEORY":"SGP4","OBJECT_ID":"2021-027J","TLE_LINE2":"2 48100  53.0524 251.3546 0001490  66.3674 293.7471 15.06381178 99737","FILE":"3755070","CENTER_NAME":"EARTH","SITE":"AFETR","PERIAPSIS":"546.239","LAUNCH_DATE":"2021-04-07","CLASSIFICATION_TYPE":"U","COUNTRY_CODE":"US","EPHEMERIS_TYPE":"0","RCS_SIZE":"LARGE","MEAN_MOTION_DDOT":"0.0000000000000","BSTAR":"0.00048047000000","OBJECT_NAME":"STARLINK-2430","DECAY_DATE":null,"RA_OF_ASC_NODE":"251.3546","SEMIMAJOR_AXIS":"6925.406","ELEMENT_SET_NO":"999","MEAN_ANOMALY":"293.7471","EPOCH":"2023-01-19T18:32:25.353888","OBJECT_TYPE":"PAYLOAD","PERIOD":"95.593","NORAD_CAT_ID":"48100","TLE_LINE1":"1 48100U 21027J   23019.77251567  .00006879  00000-0  48047-3 0  9996","GP_ID":"223503261","MEAN_MOTION":"15.06381178","ECCENTRICITY":"0.00014900","INCLINATION":"53.0524","REF_FRAME":"TEME","ARG_OF_PERICENTER":"66.3674","TIME_SYSTEM":"UTC","REV_AT_EPOCH":"9973","APOAPSIS":"548.303","MEAN_MOTION_DOT":"0.00006879"},{"REF_FRAME":"TEME","ECCENTRICITY":"0.00003920","INCLINATION":"53.0524","MEAN_MOTION":"15.06387413","GP_ID":"223503260","NORAD_CAT_ID":"48101","TLE_LINE1":"1 48101U 21027K   23019.68955134  .00020349  00000-0  13815-2 0  9990","PERIOD":"95.593","OBJECT_TYPE":"PAYLOAD","MEAN_MOTION_DOT":"0.00020349","REV_AT_EPOCH":"9958","APOAPSIS":"547.524","TIME_SYSTEM":"UTC","ARG_OF_PERICENTER":"122.7980","PERIAPSIS":"546.981","LAUNCH_DATE":"2021-04-07","SITE":"AFETR","CENTER_NAME":"EARTH","OBJECT_ID":"2021-027K","MEAN_ELEMENT_THEORY":"SGP4","FILE":"3755070","TLE_LINE2":"2 48101  53.0524 261.7318 0000392 122.7980 237.3047 15.06387413 99581","EPOCH":"2023-01-19T16:32:57.235776","MEAN_ANOMALY":"237.3047","ELEMENT_SET_NO":"999","SEMIMAJOR_AXIS":"6925.387","RA_OF_ASC_NODE":"261.7318","DECAY_DATE":null,"BSTAR":"0.00138150000000","MEAN_MOTION_DDOT":"0.0000000000000","OBJECT_NAME":"STARLINK-2436","EPHEMERIS_TYPE":"0","RCS_SIZE":"LARGE","COUNTRY_CODE":"US","CLASSIFICATION_TYPE":"U"},{"DECAY_DATE":null,"RA_OF_ASC_NODE":"253.3170","ELEMENT_SET_NO":"999","SEMIMAJOR_AXIS":"6925.369","EPOCH":"2023-01-19T08:00:47.272608","MEAN_ANOMALY":"275.2654","CLASSIFICATION_TYPE":"U","COUNTRY_CODE":"US","EPHEMERIS_TYPE":"0","RCS_SIZE":"LARGE","BSTAR":"-0.00012341000000","MEAN_MOTION_DDOT":"0.0000000000000","OBJECT_NAME":"STARLINK-2437","SITE":"AFETR","PERIAPSIS":"545.685","LAUNCH_DATE":"2021-04-07","MEAN_ELEMENT_THEORY":"SGP4","OBJECT_ID":"2021-027L","TLE_LINE2":"2 48102  53.0520 253.3170 0002237  84.8590 275.2654 15.06393242100064","FILE":"3754973","CENTER_NAME":"EARTH","ARG_OF_PERICENTER":"84.8590","TIME_SYSTEM":"UTC","APOAPSIS":"548.783","REV_AT_EPOCH":"10006","MEAN_MOTION_DOT":"-0.00002119","MEAN_MOTION":"15.06393242","ECCENTRICITY":"0.00022370","INCLINATION":"53.0520","REF_FRAME":"TEME","OBJECT_TYPE":"PAYLOAD","PERIOD":"95.593","NORAD_CAT_ID":"48102","TLE_LINE1":"1 48102U 21027L   23019.33388047 -.00002119  00000-0 -12341-3 0  9997","GP_ID":"223497063"},{"TIME_SYSTEM":"UTC","ARG_OF_PERICENTER":"93.7985","MEAN_MOTION_DOT":"0.00002101","APOAPSIS":"548.197","REV_AT_EPOCH":"9970","PERIOD":"95.595","OBJECT_TYPE":"PAYLOAD","GP_ID":"223503281","NORAD_CAT_ID":"48103","TLE_LINE1":"1 48103U 21027M   23019.60934756  .00002101  00000-0  16011-3 0  9999","MEAN_MOTION":"15.06355867","REF_FRAME":"TEME","ECCENTRICITY":"0.00012250","INCLINATION":"53.0534","COUNTRY_CODE":"US","CLASSIFICATION_TYPE":"U","MEAN_MOTION_DDOT":"0.0000000000000","BSTAR":"0.00016011000000","OBJECT_NAME":"STARLINK-2438","EPHEMERIS_TYPE":"0","RCS_SIZE":"MEDIUM","ELEMENT_SET_NO":"999","SEMIMAJOR_AXIS":"6925.484","RA_OF_ASC_NODE":"252.1257","DECAY_DATE":null,"MEAN_ANOMALY":"266.3144","EPOCH":"2023-01-19T14:37:27.629184","CENTER_NAME":"EARTH","MEAN_ELEMENT_THEORY":"SGP4","OBJECT_ID":"2021-027M","TLE_LINE2":"2 48103  53.0534 252.1257 0001225  93.7985 266.3144 15.06355867 99700","FILE":"3755072","PERIAPSIS":"546.500","LAUNCH_DATE":"2021-04-07","SITE":"AFETR"},{"ELEMENT_SET_NO":"999","SEMIMAJOR_AXIS":"6925.361","RA_OF_ASC_NODE":"257.0393","DECAY_DATE":null,"MEAN_ANOMALY":"269.8061","EPOCH":"2023-01-19T14:51:28.604448","COUNTRY_CODE":"US","CLASSIFICATION_TYPE":"U","BSTAR":"-0.00005662400000","MEAN_MOTION_DDOT":"0.0000000000000","OBJECT_NAME":"STARLINK-2439","EPHEMERIS_TYPE":"0","RCS_SIZE":"LARGE","PERIAPSIS":"545.786","LAUNCH_DATE":"2021-04-07","SITE":"AFETR","CENTER_NAME":"EARTH","MEAN_ELEMENT_THEORY":"SGP4","OBJECT_ID":"2021-027N","FILE":"3755085","TLE_LINE2":"2 48104  53.0525 257.0393 0002079  90.3167 269.8061 15.06395884 99641","TIME_SYSTEM":"UTC","ARG_OF_PERICENTER":"90.3167","MEAN_MOTION_DOT":"-0.00001125","APOAPSIS":"548.666","REV_AT_EPOCH":"9964","MEAN_MOTION":"15.06395884","REF_FRAME":"TEME","ECCENTRICITY":"0.00020790","INCLINATION":"53.0525","PERIOD":"95.592","OBJECT_TYPE":"PAYLOAD","GP_ID":"223503300","NORAD_CAT_ID":"48104","TLE_LINE1":"1 48104U 21027N   23019.61908107 -.00001125  00000-0 -56624-4 0  9994"},{"MEAN_MOTION":"15.06406291","INCLINATION":"53.0529","ECCENTRICITY":"0.00015140","REF_FRAME":"TEME","OBJECT_TYPE":"PAYLOAD","PERIOD":"95.592","TLE_LINE1":"1 48105U 21027P   23019.79185121  .00001906  00000-0  14677-3 0  9993","NORAD_CAT_ID":"48105","GP_ID":"223503005","ARG_OF_PERICENTER":"85.2793","TIME_SYSTEM":"UTC","REV_AT_EPOCH":"10043","APOAPSIS":"548.243","MEAN_MOTION_DOT":"0.00001906","SITE":"AFETR","LAUNCH_DATE":"2021-04-07","PERIAPSIS":"546.146","FILE":"3755073","TLE_LINE2":"2 48105  53.0529 201.2659 0001514  85.2793 274.8369 15.06406291100435","MEAN_ELEMENT_THEORY":"SGP4","OBJECT_ID":"2021-027P","CENTER_NAME":"EARTH","DECAY_DATE":null,"RA_OF_ASC_NODE":"201.2659","SEMIMAJOR_AXIS":"6925.329","ELEMENT_SET_NO":"999","EPOCH":"2023-01-19T19:00:15.944544","MEAN_ANOMALY":"274.8369","CLASSIFICATION_TYPE":"U","COUNTRY_CODE":"US","RCS_SIZE":"LARGE","EPHEMERIS_TYPE":"0","OBJECT_NAME":"STARLINK-2440","BSTAR":"0.00014677000000","MEAN_MOTION_DDOT":"0.0000000000000"},{"MEAN_MOTION_DOT":"-0.00004383","REV_AT_EPOCH":"9971","APOAPSIS":"547.804","TIME_SYSTEM":"UTC","ARG_OF_PERICENTER":"109.1683","REF_FRAME":"TEME","INCLINATION":"53.0506","ECCENTRICITY":"0.00008130","MEAN_MOTION":"15.06391115","GP_ID":"223504910","TLE_LINE1":"1 48106U 21027Q   23019.64350162 -.00004383  00000-0 -27560-3 0  9996","NORAD_CAT_ID":"48106","PERIOD":"95.593","OBJECT_TYPE":"PAYLOAD","EPOCH":"2023-01-19T15:26:38.539968","MEAN_ANOMALY":"250.9394","SEMIMAJOR_AXIS":"6925.376","ELEMENT_SET_NO":"999","DECAY_DATE":null,"RA_OF_ASC_NODE":"251.9450","OBJECT_NAME":"STARLINK-2442","BSTAR":"-0.00027560000000","MEAN_MOTION_DDOT":"0.0000000000000","RCS_SIZE":"LARGE","EPHEMERIS_TYPE":"0","COUNTRY_CODE":"US","CLASSIFICATION_TYPE":"U","LAUNCH_DATE":"2021-04-07","PERIAPSIS":"546.678","SITE":"AFETR","CENTER_NAME":"EARTH","TLE_LINE2":"2 48106  53.0506 251.9450 0000813 109.1683 250.9394 15.06391115 99716","FILE":"3755162","MEAN_ELEMENT_THEORY":"SGP4","OBJECT_ID":"2021-027Q"},{"LAUNCH_DATE":"2021-04-07","PERIAPSIS":"546.699","SITE":"AFETR","CENTER_NAME":"EARTH","TLE_LINE2":"2 48107  53.0521 251.8697 0000777  92.8800 267.2278 15.06392412 99717","FILE":"3755022","OBJECT_ID":"2021-027R","MEAN_ELEMENT_THEORY":"SGP4","ELEMENT_SET_NO":"999","SEMIMAJOR_AXIS":"6925.372","RA_OF_ASC_NODE":"251.8697","DECAY_DATE":null,"EPOCH":"2023-01-19T15:47:52.327392","MEAN_ANOMALY":"267.2278","COUNTRY_CODE":"US","CLASSIFICATION_TYPE":"U","OBJECT_NAME":"STARLINK-2443","BSTAR":"0.00000005201600","MEAN_MOTION_DDOT":"0.0000000000000","RCS_SIZE":"LARGE","EPHEMERIS_TYPE":"0","MEAN_MOTION":"15.06392412","REF_FRAME":"TEME","INCLINATION":"53.0521","ECCENTRICITY":"0.00007770","PERIOD":"95.593","OBJECT_TYPE":"PAYLOAD","GP_ID":"223501539","TLE_LINE1":"1 48107U 21027R   23019.65824453 -.00000280  00000-0  52016-7 0  9996","NORAD_CAT_ID":"48107","TIME_SYSTEM":"UTC","ARG_OF_PERICENTER":"92.8800","MEAN_MOTION_DOT":"-0.00000280","REV_AT_EPOCH":"9971","APOAPSIS":"547.775"},{"TIME_SYSTEM":"UTC","ARG_OF_PERICENTER":"97.9934","MEAN_MOTION_DOT":"-0.00000372","APOAPSIS":"548.113","REV_AT_EPOCH":"9959","PERIOD":"95.593","OBJECT_TYPE":"PAYLOAD","GP_ID":"223503305","NORAD_CAT_ID":"48108","TLE_LINE1":"1 48108U 21027S   23019.76421382 -.00000372  00000-0 -61172-5 0  9997","MEAN_MOTION":"15.06392508","REF_FRAME":"TEME","ECCENTRICITY":"0.00012650","INCLINATION":"53.0528","COUNTRY_CODE":"US","CLASSIFICATION_TYPE":"U","MEAN_MOTION_DDOT":"0.0000000000000","BSTAR":"-0.00000611720000","OBJECT_NAME":"STARLINK-2444","EPHEMERIS_TYPE":"0","RCS_SIZE":"LARGE","ELEMENT_SET_NO":"999","SEMIMAJOR_AXIS":"6925.372","RA_OF_ASC_NODE":"261.3910","DECAY_DATE":null,"EPOCH":"2023-01-19T18:20:28.074048","MEAN_ANOMALY":"262.1199","CENTER_NAME":"EARTH","OBJECT_ID":"2021-027S","MEAN_ELEMENT_THEORY":"SGP4","TLE_LINE2":"2 48108  53.0528 261.3910 0001265  97.9934 262.1199 15.06392508 99594","FILE":"3755073","PERIAPSIS":"546.360","LAUNCH_DATE":"2021-04-07","SITE":"AFETR"}];
